[{"OBJECT_NAME":"NUSAT-35 (WILLIAMINA)","OBJECT_ID":"2023-001AR","EPOCH":"2026-03-09T22:28:40.425600","MEAN_MOTION":15.3245616,"ECCENTRICITY":0.00136635,"INCLINATION":97.1993,"RA_OF_ASC_NODE":124.278,"ARG_OF_PERICENTER":97.0313,"MEAN_ANOMALY":263.2484,"EPHEMERIS_TYPE":0,"CLASSIFICATION_TYPE":"U","NORAD_CAT_ID":55048,"ELEMENT_SET_NO":999,"REV_AT_EPOCH":17719,"BSTAR":0.00053479647,"MEAN_MOTION_DOT":0.0001675,"MEAN_MOTION_DDOT":0},{"OBJECT_NAME":"STARLINK-35091","OBJECT_ID":"2025-210U","EPOCH":"2026-03-09T22:48:44.945280","MEAN_MOTION":15.30212641,"ECCENTRICITY":0.00013612,"INCLINATION":53.1582,"RA_OF_ASC_NODE":305.6845,"ARG_OF_PERICENTER":110.4147,"MEAN_ANOMALY":249.7,"EPHEMERIS_TYPE":0,"CLASSIFICATION_TYPE":"U","NORAD_CAT_ID":65640,"ELEMENT_SET_NO":999,"REV_AT_EPOCH":2777,"BSTAR":0.00057092608,"MEAN_MOTION_DOT":0.00016594,"MEAN_MOTION_DDOT":0}]
